{
  "user_input": "桂駅近くのカフェ",
  "search_center": "桂, 桂停車場線, 桂木ノ下町, 西京区, 京都市, 京都府, 615-0000, 日本",
  "hit_count": 34,
  "results": [
    {
      "name": "大阪王将",
      "distance": "約62m",
      "maps_url": "http://googleusercontent.com/maps.google.com/maps?q=34.9792963,135.7039188",
      "details": {
        "amenity": "restaurant",
        "brand": "大阪王将",
        "brand:en": "Osaka Ohsho",
        "brand:ja": "大阪王将",
        "brand:wikidata": "Q48743717",
        "brand:wikipedia": "ja:大阪王将",
        "brand:zh": "大阪王將",
        "cuisine": "japanese;chinese",
        "name": "大阪王将",
        "name:en": "Osaka Ohsho",
        "name:ja": "大阪王将",
        "name:zh": "大阪王將"
      }
    },
    {
      "name": "焼肉かずや",
      "distance": "約100m",
      "maps_url": "http://googleusercontent.com/maps.google.com/maps?q=34.9785975,135.7035737",
      "details": {
        "amenity": "restaurant",
        "name": "焼肉かずや"
      }
    },
    {
      "name": "ターバンカレー",
      "distance": "約105m",
      "maps_url": "http://googleusercontent.com/maps.google.com/maps?q=34.9800471,135.7023445",
      "details": {
        "amenity": "restaurant",
        "cuisine": "curry",
        "name": "ターバンカレー"
      }
    },
    {
      "name": "Cafe de neuf",
      "distance": "約132m",
      "maps_url": "http://googleusercontent.com/maps.google.com/maps?q=34.9782877,135.7034745",
      "details": {
        "amenity": "cafe",
        "name": "Cafe de neuf"
      }
    },
    {
      "name": "あかぴーまん",
      "distance": "約221m",
      "maps_url": "http://googleusercontent.com/maps.google.com/maps?q=34.9776438,135.7022794",
      "details": {
        "amenity": "restaurant",
        "name": "あかぴーまん"
      }
    },
    {
      "name": "コーヒーショップハヤシ",
      "distance": "約321m",
      "maps_url": "http://googleusercontent.com/maps.google.com/maps?q=34.9794963,135.7067843",
      "details": {
        "amenity": "cafe",
        "name": "コーヒーショップハヤシ"
      }
    },
    {
      "name": "やきとり串揚げ夢叶",
      "distance": "約347m",
      "maps_url": "http://googleusercontent.com/maps.google.com/maps?q=34.9784421,135.6996547",
      "details": {
        "amenity": "restaurant",
        "name": "やきとり串揚げ夢叶"
      }
    },
    {
      "name": "Bloom",
      "distance": "約374m",
      "maps_url": "http://googleusercontent.com/maps.google.com/maps?q=34.9761152,135.7028449",
      "details": {
        "amenity": "cafe",
        "name": "Bloom"
      }
    },
    {
      "name": "ぼんち食堂",
      "distance": "約400m",
      "maps_url": "http://googleusercontent.com/maps.google.com/maps?q=34.9799675,135.7076116",
      "details": {
        "amenity": "restaurant",
        "name": "ぼんち食堂"
      }
    },
    {
      "name": "ピッコロモンドヤマダ",
      "distance": "約496m",
      "maps_url": "http://googleusercontent.com/maps.google.com/maps?q=34.9834999,135.7009187",
      "details": {
        "amenity": "restaurant",
        "cuisine": "pizza;pasta",
        "name": "ピッコロモンドヤマダ"
      }
    },
    {
      "name": "皇琲亭",
      "distance": "約549m",
      "maps_url": "http://googleusercontent.com/maps.google.com/maps?q=34.980915,135.7090296",
      "details": {
        "amenity": "cafe",
        "name": "皇琲亭"
      }
    },
    {
      "name": "ラーメン来来亭",
      "distance": "約557m",
      "maps_url": "http://googleusercontent.com/maps.google.com/maps?q=34.9827313,135.7079",
      "details": {
        "amenity": "restaurant",
        "cuisine": "noodle",
        "cuisine:ja": "ラーメン",
        "name": "ラーメン来来亭",
        "source": "survey"
      }
    },
    {
      "name": "こーひー もなりざ",
      "distance": "約566m",
      "maps_url": "http://googleusercontent.com/maps.google.com/maps?q=34.9763221,135.6983706",
      "details": {
        "amenity": "cafe",
        "name": "こーひー もなりざ"
      }
    },
    {
      "name": "リコルディ",
      "distance": "約580m",
      "maps_url": "http://googleusercontent.com/maps.google.com/maps?q=34.9763783,135.698121",
      "details": {
        "amenity": "restaurant",
        "cuisine": "italian",
        "name": "リコルディ"
      }
    },
    {
      "name": "天天有",
      "distance": "約602m",
      "maps_url": "http://googleusercontent.com/maps.google.com/maps?q=34.9811424,135.7095539",
      "details": {
        "amenity": "restaurant",
        "cuisine": "noodle",
        "name": "天天有"
      }
    },
    {
      "name": "プライベートレストランR",
      "distance": "約636m",
      "maps_url": "http://googleusercontent.com/maps.google.com/maps?q=34.9832221,135.6979931",
      "details": {
        "amenity": "restaurant",
        "cuisine": "french",
        "name": "プライベートレストランR"
      }
    },
    {
      "name": "牛角",
      "distance": "約641m",
      "maps_url": "http://googleusercontent.com/maps.google.com/maps?q=34.9803332,135.7102209",
      "details": {
        "amenity": "restaurant",
        "brand": "牛角",
        "brand:en": "Gyū-Kaku",
        "brand:ja": "牛角",
        "brand:wikidata": "Q11349387",
        "cuisine": "barbecue",
        "name": "牛角",
        "name:en": "Gyū-Kaku",
        "name:ja": "牛角",
        "name:ja_rm": "Gyukaku",
        "operator": "牛角",
        "source": "survey"
      }
    },
    {
      "name": "喫茶コロ",
      "distance": "約650m",
      "maps_url": "http://googleusercontent.com/maps.google.com/maps?q=34.9737225,135.7045925",
      "details": {
        "amenity": "cafe",
        "name": "喫茶コロ"
      }
    },
    {
      "name": "Haleiwa cafe",
      "distance": "約704m",
      "maps_url": "http://googleusercontent.com/maps.google.com/maps?q=34.9733591,135.7012167",
      "details": {
        "amenity": "restaurant",
        "cuisine": "pasta;sandwich;cafe;burger;coffee",
        "name": "Haleiwa cafe",
        "opening_hours": "Mo-Fr 11:00-22:00; Sa-Su 10:00-22:00"
      }
    },
    {
      "name": "サンマルク",
      "distance": "約762m",
      "maps_url": "http://googleusercontent.com/maps.google.com/maps?q=34.9733177,135.6995541",
      "details": {
        "amenity": "restaurant",
        "name": "サンマルク"
      }
    },
    {
      "name": "第一旭",
      "distance": "約768m",
      "maps_url": "http://googleusercontent.com/maps.google.com/maps?q=34.9788853,135.7116661",
      "details": {
        "amenity": "restaurant",
        "branch": "桂店",
        "brewery": "Kirin",
        "cuisine": "noodle",
        "cuisine:ja": "ラーメン",
        "level": "0",
        "name": "第一旭",
        "name:ja-Latn": "Daiichiasahi",
        "opening_hours": "Mo-Su 11:00-03:00",
        "smoking": "yes",
        "wheelchair": "yes"
      }
    },
    {
      "name": "ラーメン桂",
      "distance": "約777m",
      "maps_url": "http://googleusercontent.com/maps.google.com/maps?q=34.983154,135.6960042",
      "details": {
        "amenity": "restaurant",
        "cuisine": "noodle",
        "name": "ラーメン桂"
      }
    },
    {
      "name": "ブーシェリーやち",
      "distance": "約803m",
      "maps_url": "http://googleusercontent.com/maps.google.com/maps?q=34.9730256,135.6992626",
      "details": {
        "amenity": "restaurant",
        "name": "ブーシェリーやち"
      }
    },
    {
      "name": "ポデスタコーヒー",
      "distance": "約832m",
      "maps_url": "http://googleusercontent.com/maps.google.com/maps?q=34.9829647,135.6951793",
      "details": {
        "name": "ポデスタコーヒー",
        "shop": "coffee"
      }
    },
    {
      "name": "サイゼリヤ",
      "distance": "約890m",
      "maps_url": "http://googleusercontent.com/maps.google.com/maps?q=34.9786172,135.6935426",
      "details": {
        "addr:city": "京都市",
        "addr:country": "JP",
        "addr:neighbourhood": "27",
        "addr:province": "京都府",
        "addr:quarter": "御陵溝浦町",
        "addr:suburb": "西京区",
        "amenity": "restaurant",
        "branch": "御陵溝浦",
        "brand": "サイゼリヤ",
        "brand:en": "Saizeriya",
        "brand:ja": "サイゼリヤ",
        "brand:wikidata": "Q886564",
        "contact:phone": "+81 75 382 5781",
        "contact:website": "https://www.saizeriya.co.jp/restaurant/shop_detail.php?cd=0468",
        "cuisine": "italian",
        "name": "サイゼリヤ",
        "name:en": "Saizeriya",
        "name:ja": "サイゼリヤ",
        "name:ja-Hira": "さいぜりや",
        "name:ja-Latn": "Saizeriya",
        "name:ja_rm": "Saizeriya",
        "opening_hours": "11:00-02:00",
        "operator": "株式会社サイゼリヤ",
        "parking": "yes",
        "phone": "075-382-5781",
        "shop_id": "468",
        "source": "Bing; survey",
        "website": "https://www.saizeriya.co.jp/restaurant/shop_detail.php?cd=468"
      }
    },
    {
      "name": "くいしんぼー山中",
      "distance": "約895m",
      "maps_url": "http://googleusercontent.com/maps.google.com/maps?q=34.9794003,135.6934337",
      "details": {
        "amenity": "restaurant",
        "cuisine": "steak",
        "name": "くいしんぼー山中"
      }
    },
    {
      "name": "ジョイフル",
      "distance": "約898m",
      "maps_url": "http://googleusercontent.com/maps.google.com/maps?q=34.9732541,135.7095613",
      "details": {
        "amenity": "restaurant",
        "brand": "ジョイフル",
        "brand:en": "Joyfull",
        "brand:ja": "ジョイフル",
        "brand:wikidata": "Q11310517",
        "brand:wikipedia": "ja:ジョイフル",
        "cuisine": "western",
        "name": "ジョイフル",
        "name:en": "Joyfull",
        "name:ja": "ジョイフル"
      }
    },
    {
      "name": "ステーキガスト",
      "distance": "約904m",
      "maps_url": "http://googleusercontent.com/maps.google.com/maps?q=34.9875025,135.7048059",
      "details": {
        "amenity": "restaurant",
        "brand": "ステーキガスト",
        "brand:en": "Steak Gusto",
        "brand:ja": "ステーキガスト",
        "brand:wikidata": "Q92599119",
        "cuisine": "steak",
        "level": "1",
        "name": "ステーキガスト",
        "name:en": "Steak Gusto",
        "name:ja": "ステーキガスト",
        "name:ja_rm": "suteki Gasuto",
        "source": "survey",
        "takeaway": "yes"
      }
    },
    {
      "name": "赤から",
      "distance": "約911m",
      "maps_url": "http://googleusercontent.com/maps.google.com/maps?q=34.986287,135.6977007",
      "details": {
        "amenity": "restaurant",
        "name": "赤から"
      }
    },
    {
      "name": "Living Room パグカフェ",
      "distance": "約931m",
      "maps_url": "http://googleusercontent.com/maps.google.com/maps?q=34.9871936,135.7072065",
      "details": {
        "addr:street": "桂川田町151",
        "amenity": "cafe",
        "cuisine": "coffee_shop",
        "internet_access": "wlan",
        "name": "Living Room パグカフェ",
        "name:en": "Living Room Pug Café",
        "phone": "0758747989",
        "website": "https://kyotopug.com"
      }
    },
    {
      "name": "焼肉天壇",
      "distance": "約945m",
      "maps_url": "http://googleusercontent.com/maps.google.com/maps?q=34.9841839,135.6946262",
      "details": {
        "amenity": "restaurant",
        "name": "焼肉天壇"
      }
    },
    {
      "name": "ラーメン横綱",
      "distance": "約967m",
      "maps_url": "http://googleusercontent.com/maps.google.com/maps?q=34.9837208,135.6940014",
      "details": {
        "amenity": "restaurant",
        "cuisine": "noodle",
        "cuisine:ja": "ラーメン",
        "landuse": "retail",
        "name": "ラーメン横綱",
        "source": "survey"
      }
    },
    {
      "name": "にぎり長次郎",
      "distance": "約988m",
      "maps_url": "http://googleusercontent.com/maps.google.com/maps?q=34.987008,135.6975125",
      "details": {
        "amenity": "restaurant",
        "building": "yes",
        "cuisine": "sushi",
        "name": "にぎり長次郎"
      }
    },
    {
      "name": "大勝軒",
      "distance": "約993m",
      "maps_url": "http://googleusercontent.com/maps.google.com/maps?q=34.9826456,135.6930696",
      "details": {
        "amenity": "restaurant",
        "cuisine": "noodle",
        "name": "大勝軒"
      }
    }
  ]
}